{
    "links": {
        "self": "http://www.neowsapp.com/rest/v1/neo/3991617?api_key=iIulBulltgU6a56xZRHN4H3l9WmuAYTsLGpBGhQ2"
    },
    "id": "3991617",
    "neo_reference_id": "3991617",
    "name": "(2020 DM)",
    "designation": "2020 DM",
    "nasa_jpl_url": "http://ssd.jpl.nasa.gov/sbdb.cgi?sstr=3991617",
    "absolute_magnitude_h": 26.828,
    "estimated_diameter": {
        "kilometers": {
            "estimated_diameter_min": 0.0114539419,
            "estimated_diameter_max": 0.0256117927
        },
        "meters": {
            "estimated_diameter_min": 11.4539419205,
            "estimated_diameter_max": 25.6117927446
        },
        "miles": {
            "estimated_diameter_min": 0.0071171473,
            "estimated_diameter_max": 0.0159144253
        },
        "feet": {
            "estimated_diameter_min": 37.5785508105,
            "estimated_diameter_max": 84.0281941082
        }
    },
    "is_potentially_hazardous_asteroid": false,
    "close_approach_data": [
        {
            "close_approach_date": "2019-09-08",
            "close_approach_date_full": "2019-Sep-08 01:34",
            "epoch_date_close_approach": 1567906440000,
            "relative_velocity": {
                "kilometers_per_second": "7.2899994184",
                "kilometers_per_hour": "26243.9979061426",
                "miles_per_hour": "16306.9996989585"
            },
            "miss_distance": {
                "astronomical": "0.454264667",
                "lunar": "176.708955463",
                "kilometers": "67957026.59945929",
                "miles": "42226538.258306602"
            },
            "orbiting_body": "Earth"
        },
        {
            "close_approach_date": "2020-02-09",
            "close_approach_date_full": "2020-Feb-09 19:34",
            "epoch_date_close_approach": 1581276840000,
            "relative_velocity": {
                "kilometers_per_second": "10.3581294874",
                "kilometers_per_hour": "37289.2661546483",
                "miles_per_hour": "23170.0998503702"
            },
            "miss_distance": {
                "astronomical": "0.0144545124",
                "lunar": "5.6228053236",
                "kilometers": "2162364.266928588",
                "miles": "1343630.8504789944"
            },
            "orbiting_body": "Earth"
        },
        {
            "close_approach_date": "2083-09-22",
            "close_approach_date_full": "2083-Sep-22 22:05",
            "epoch_date_close_approach": 3588876300000,
            "relative_velocity": {
                "kilometers_per_second": "19.9925143632",
                "kilometers_per_hour": "71973.0517074329",
                "miles_per_hour": "44721.2553789879"
            },
            "miss_distance": {
                "astronomical": "0.3863140751",
                "lunar": "150.2761752139",
                "kilometers": "57791762.785980037",
                "miles": "35910136.2200650306"
            },
            "orbiting_body": "Earth"
        }
    ],
    "orbital_data": {
        "orbit_id": "3",
        "orbit_determination_date": "2020-02-23 08:16:23",
        "first_observation_date": "2020-02-16",
        "last_observation_date": "2020-02-22",
        "data_arc_in_days": 6,
        "observations_used": 29,
        "orbit_uncertainty": "8",
        "minimum_orbit_intersection": ".0136309",
        "jupiter_tisserand_invariant": "4.630",
        "epoch_osculation": "2458896.5",
        "eccentricity": ".3850684928056075",
        "semi_major_axis": "1.413692629892911",
        "inclination": "9.306770269576061",
        "ascending_node_longitude": "323.8485886285159",
        "orbital_period": "613.9470510401753",
        "perihelion_distance": ".869324139609652",
        "perihelion_argument": "119.2309027666465",
        "aphelion_distance": "1.958061120176169",
        "perihelion_time": "2458845.711227359288",
        "mean_anomaly": "29.78100166729176",
        "mean_motion": ".5863697844790893",
        "equinox": "J2000",
        "orbit_class": {
            "orbit_class_type": "APO",
            "orbit_class_description": "Near-Earth asteroid orbits which cross the Earth’s orbit similar to that of 1862 Apollo",
            "orbit_class_range": "a (semi-major axis) > 1.0 AU; q (perihelion) < 1.017 AU"
        }
    },
    "is_sentry_object": false
}